NORAD_CAT_ID,OBJECT_NAME,OBJECT_TYPE,EPOCH,MEAN_MOTION,ECCENTRICITY,INCLINATION,RA_OF_ASC_NODE,ARG_OF_PERICENTER,MEAN_ANOMALY,BSTAR,MEAN_MOTION_DOT,MEAN_MOTION_DDOT,TLE_LINE0,TLE_LINE1,TLE_LINE2,SEMIMAJOR_AXIS,PERIOD,APOGEE,PERIGEE,DECAYED
52675.0,STARLINK-3934,PAYLOAD,2022-07-31 14:00:01,15.10929242,0.0001827,53.2174,296.8477,36.4279,327.9449,-0.068966,-0.01076123,0.0,0 STARLINK-3934,1 52675U 22053V   22212.58334491 -.01076123  00000-0 -68966-1 0  9991,2 52675  53.2174 296.8477 0001827  36.4279 327.9449 15.10929242  1308,6911.502,95.306,534.63,532.104,0.0
52675.0,STARLINK-3934,PAYLOAD,2022-07-31 20:00:01,15.10360635,0.0001583,53.2171,295.7192,45.9403,238.7511,-0.070247,-0.01078673,0.0,0 STARLINK-3934,1 52675U 22053V   22212.83334491 -.01078673  00000-0 -70247-1 0  9996,2 52675  53.2171 295.7192 0001583  45.9403 238.7511 15.10360635 11945,6913.236,95.341,536.196,534.007,0.0
52675.0,STARLINK-3934,PAYLOAD,2022-07-31 22:00:00,15.10172591,0.0001578,53.2174,295.3429,40.0558,337.961,-0.070983,-0.01083887,0.0,0 STARLINK-3934,1 52675U 22053V   22212.91667824 -.01083887  00000-0 -70983-1 0  9994,2 52675  53.2174 295.3429 0001578  40.0558 337.9610 15.10172591  1301,6913.81,95.353,536.766,534.5840000000002,0.0
52675.0,STARLINK-3934,PAYLOAD,2022-08-01 04:00:00,15.09475248,0.000178,53.2174,294.2163,36.7399,260.9317,-0.044861,-0.00679067,0.0,0 STARLINK-3934,1 52675U 22053V   22213.16667824 -.00679067  00000-0 -44861-1 0  9998,2 52675  53.2174 294.2163 0001780  36.7399 260.9317 15.09475248 11992,6915.939,95.397,539.035,536.573,0.0
52675.0,STARLINK-3934,PAYLOAD,2022-08-01 14:00:01,15.08833274,0.0001879,53.2175,292.3458,36.9372,5.7338,0.0003253,4.892e-05,0.0,0 STARLINK-3934,1 52675U 22053V   22213.58334491  .00004892  00000-0  32530-3 0  9993,2 52675  53.2175 292.3458 0001879  36.9372   5.7338 15.08833274 12053,6917.901,95.438,541.066,538.466,0.0
52675.0,STARLINK-3934,PAYLOAD,2022-08-01 22:00:00,15.088758,0.0001742,53.2151,290.86,37.7604,16.5026,-0.0011725,-0.00018918,0.0,0 STARLINK-3934,1 52675U 22053V   22213.91667824 -.00018918  00000-0 -11725-2 0  9997,2 52675  53.2151 290.8600 0001742  37.7604  16.5026 15.08875800 12106,6917.771,95.435,540.841,538.431,0.0
52675.0,STARLINK-3934,PAYLOAD,2022-08-02 14:00:01,15.08806448,0.0001908,53.2149,287.8683,39.9852,37.511,-0.0012174,-0.00019593,0.0,0 STARLINK-3934,1 52675U 22053V   22214.58334491 -.00019593  00000-0 -12174-2 0  9991,2 52675  53.2149 287.8683 0001908  39.9852  37.5110 15.08806448 12203,6917.983,95.44,541.168,538.528,0.0
52675.0,STARLINK-3934,PAYLOAD,2022-08-03 04:00:00,15.08793757,0.0001736,53.2146,285.2477,46.8386,320.8565,0.0037286,0.00059479,0.0,0 STARLINK-3934,1 52675U 22053V   22215.16667824  .00059479  00000-0  37286-2 0  9991,2 52675  53.2146 285.2477 0001736  46.8386 320.8565 15.08793757 12290,6918.022,95.44,541.0880000000002,538.686,0.0
52675.0,STARLINK-3934,PAYLOAD,2022-08-03 12:00:00,15.08827263,0.0001962,53.2144,283.753,43.4586,335.805,-0.00041421,-6.872e-05,0.0,0 STARLINK-3934,1 52675U 22053V   22215.50001157 -.00006872  00000-0 -41421-3 0  9998,2 52675  53.2144 283.7530 0001962  43.4586 335.8050 15.08827263 12348,6917.919,95.438,541.1419999999998,538.427,0.0
52675.0,STARLINK-3934,PAYLOAD,2022-08-03 14:00:01,15.08810886,0.0001965,53.2144,283.3791,42.256,69.9069,0.0018608,0.00029427,0.0,0 STARLINK-3934,1 52675U 22053V   22215.58334491  .00029427  00000-0  18608-2 0  9995,2 52675  53.2144 283.3791 0001965  42.2560  69.9069 15.08810886  1307,6917.969,95.439,541.194,538.475,0.0
52675.0,STARLINK-3934,PAYLOAD,2022-08-03 22:00:01,15.08835086,0.0001826,53.2141,281.8811,45.1937,78.609,-0.00073698,-0.00011997,0.0,0 STARLINK-3934,1 52675U 22053V   22215.91668981 -.00011997  00000-0 -73698-3 0  9992,2 52675  53.2141 281.8811 0001826  45.1937  78.6090 15.08835086  1306,6917.895,95.438,541.024,538.497,0.0
52675.0,STARLINK-3934,PAYLOAD,2022-08-04 12:00:00,15.08832609,0.0001992,53.2139,279.2636,44.2957,9.7215,-9.6538e-05,-1.824e-05,0.0,0 STARLINK-3934,1 52675U 22053V   22216.50001157 -.00001824  00000-0 -96538-4 0  9991,2 52675  53.2139 279.2636 0001992  44.2957   9.7215 15.08832609 12499,6917.903,95.438,541.146,538.39,0.0
52675.0,STARLINK-3934,PAYLOAD,2022-08-04 14:00:01,15.08815265,0.0001994,53.214,278.8897,42.5923,104.3268,0.0023594,0.00037437,0.0,0 STARLINK-3934,1 52675U 22053V   22216.58334491  .00037437  00000-0  23594-2 0  9996,2 52675  53.2140 278.8897 0001994  42.5923 104.3268 15.08815265  1308,6917.956,95.439,541.2,538.442,0.0
52675.0,STARLINK-3934,PAYLOAD,2022-08-04 22:00:00,15.08838357,0.0001854,53.2139,277.3916,45.6001,112.9042,-0.00033499,-5.615e-05,0.0,0 STARLINK-3934,1 52675U 22053V   22216.91667824 -.00005615  00000-0 -33499-3 0  9993,2 52675  53.2139 277.3916 0001854  45.6001 112.9042 15.08838357  1300,6917.885,95.438,541.033,538.4680000000002,0.0
52675.0,STARLINK-3934,PAYLOAD,2022-08-05 12:00:00,15.08838124,0.0002059,53.2139,274.7741,44.4231,44.3762,0.00038965,5.918e-05,0.0,0 STARLINK-3934,1 52675U 22053V   22217.50001157  .00005918  00000-0  38965-3 0  9997,2 52675  53.2139 274.7741 0002059  44.4231  44.3762 15.08838124 12656,6917.886,95.438,541.1759999999998,538.327,0.0
52675.0,STARLINK-3934,PAYLOAD,2022-08-05 14:00:01,15.08821579,0.0002066999999999,53.2139,274.4001,42.5293,139.2371,0.0028404,0.00045185,0.0,0 STARLINK-3934,1 52675U 22053V   22217.58335648  .00045185  00000-0  28404-2 0  9996,2 52675  53.2139 274.4001 0002067  42.5293 139.2371 15.08821579  1304,6917.937,95.439,541.232,538.372,0.0
52675.0,STARLINK-3934,PAYLOAD,2022-08-05 22:00:00,15.08844863,0.0001921,53.2139,272.9019,45.5243,147.7768,0.00022759,3.336e-05,0.0,0 STARLINK-3934,1 52675U 22053V   22217.91667824  .00003336  00000-0  22759-3 0  9997,2 52675  53.2139 272.9019 0001921  45.5243 147.7768 15.08844863  1307,6917.866,95.437,541.059,538.4019999999998,0.0
52675.0,STARLINK-3934,PAYLOAD,2022-08-06 14:00:01,15.08833112,0.0002145999999999,53.2141,269.9106,42.2946,174.226,0.0026144,0.00041559,0.0,0 STARLINK-3934,1 52675U 22053V   22218.58334491  .00041559  00000-0  26144-2 0  9992,2 52675  53.2141 269.9106 0002146  42.2946 174.2260 15.08833112  1304,6917.901,95.438,541.251,538.2819999999998,0.0
52675.0,STARLINK-3934,PAYLOAD,2022-08-06 20:00:01,15.08876518,0.0002009999999999,53.2142,268.7869,43.6725,91.5473,-0.0045086,-0.00071405,0.0,0 STARLINK-3934,1 52675U 22053V   22218.83334491 -.00071405  00000-0 -45086-2 0  9991,2 52675  53.2142 268.7869 0002010  43.6725  91.5473 15.08876518 12854,6917.769,95.435,541.024,538.243,0.0
52675.0,STARLINK-3934,PAYLOAD,2022-08-06 22:00:00,15.08844379,0.0001947,53.2143,268.4123,44.0462,184.087,-0.0012333,-0.00019865,0.0,0 STARLINK-3934,1 52675U 22053V   22218.91667824 -.00019865  00000-0 -12333-2 0  9990,2 52675  53.2143 268.4123 0001947  44.0462 184.0870 15.08844379  1303,6917.8669999999975,95.437,541.0790000000002,538.385,0.0
52675.0,STARLINK-3934,PAYLOAD,2022-08-07 04:00:00,15.08837401,0.0001953,53.2145,267.2898,46.9162,99.9091,0.00030552,4.577e-05,0.0,0 STARLINK-3934,1 52675U 22053V   22219.16667824  .00004577  00000-0  30552-3 0  9994,2 52675  53.2145 267.2898 0001953  46.9162  99.9091 15.08837401 12901,6917.888000000001,95.438,541.104,538.4019999999998,0.0
52675.0,STARLINK-3934,PAYLOAD,2022-08-07 14:00:01,15.08814313,0.0002165,53.2144,265.4212,40.6395,210.6823,0.0029249,0.00046537,0.0,0 STARLINK-3934,1 52675U 22053V   22219.58334491  .00046537  00000-0  29249-2 0  9993,2 52675  53.2144 265.4212 0002165  40.6395 210.6823 15.08814313  1309,6917.959,95.439,541.322,538.326,0.0
52675.0,STARLINK-3934,PAYLOAD,2022-08-07 22:00:00,15.08831185,0.0002000999999999,53.2147,263.923,44.1958,218.7218,0.0013828,0.00021783,0.0,0 STARLINK-3934,1 52675U 22053V   22219.91667824  .00021783  00000-0  13828-2 0  9991,2 52675  53.2147 263.9230 0002001  44.1958 218.7218 15.08831185  1301,6917.906999999997,95.438,541.1569999999998,538.388,0.0
52675.0,STARLINK-3934,PAYLOAD,2022-08-08 14:00:01,15.0884651,0.0002184,53.2144,260.9319,40.6938,245.5021,0.0015254,0.00024077,0.0,0 STARLINK-3934,1 52675U 22053V   22220.58335648  .00024077  00000-0  15254-2 0  9996,2 52675  53.2144 260.9319 0002184  40.6938 245.5021 15.08846510 13114,6917.86,95.437,541.236,538.215,0.0
52675.0,STARLINK-3934,PAYLOAD,2022-08-08 22:00:00,15.08829607,0.000197,53.2146,259.4337,43.6469,254.1148,0.0014991,0.00023644,0.0,0 STARLINK-3934,1 52675U 22053V   22220.91667824  .00023644  00000-0  14991-2 0  9993,2 52675  53.2146 259.4337 0001970  43.6469 254.1148 15.08829607  1305,6917.9119999999975,95.438,541.14,538.414,0.0
52675.0,STARLINK-3934,PAYLOAD,2022-08-09 04:00:00,15.08851796,0.0001955999999999,53.2147,258.3117,45.277,171.1696,-0.00017996,-3.152e-05,0.0,0 STARLINK-3934,1 52675U 22053V   22221.16667824 -.00003152  00000-0 -17996-3 0  9994,2 52675  53.2147 258.3117 0001956  45.2770 171.1696 15.08851796 13209,6917.844,95.437,541.062,538.356,0.0
52675.0,STARLINK-3934,PAYLOAD,2022-08-09 14:00:01,15.08822351,0.0002094,53.2141,256.4426,37.5917,283.3647,0.00052572,8.085e-05,0.0,0 STARLINK-3934,1 52675U 22053V   22221.58334491  .00008085  00000-0  52572-3 0  9998,2 52675  53.2141 256.4426 0002094  37.5917 283.3647 15.08822351  1301,6917.934,95.439,541.248,538.351,0.0
52675.0,STARLINK-3934,PAYLOAD,2022-08-09 20:00:01,15.08827226,0.0001915,53.2142,255.3189,40.0831,199.5591,-0.00060701,-9.933e-05,0.0,0 STARLINK-3934,1 52675U 22053V   22221.83334491 -.00009933  00000-0 -60701-3 0  9994,2 52675  53.2142 255.3189 0001915  40.0831 199.5591 15.08827226 13306,6917.919,95.438,541.109,538.46,0.0
52675.0,STARLINK-3934,PAYLOAD,2022-08-09 22:00:00,15.08803908,0.0001867,53.2141,254.9445,41.575,290.969,0.0024581,0.00039011,0.0,0 STARLINK-3934,1 52675U 22053V   22221.91667824  .00039011  00000-0  24581-2 0  9995,2 52675  53.2141 254.9445 0001867  41.5750 290.9690 15.08803908  1301,6917.991,95.44,541.1469999999998,538.564,0.0
